OBJECT_NAME,OBJECT_ID,EPOCH,MEAN_MOTION,ECCENTRICITY,INCLINATION,RA_OF_ASC_NODE,ARG_OF_PERICENTER,MEAN_ANOMALY,EPHEMERIS_TYPE,CLASSIFICATION_TYPE,NORAD_CAT_ID,ELEMENT_SET_NO,REV_AT_EPOCH,BSTAR,MEAN_MOTION_DOT,MEAN_MOTION_DDOT
QIANFAN-208,2026-153H,2026-07-17T21:54:54.609120,14.25462597,.00085338,88.9925,358.7345,175.0693,185.0586,0,U,69807,999,193,.57386105E-4,.15E-5,0
QIANFAN-209,2026-153J,2026-07-17T22:01:56.988480,14.23086572,.00076632,88.9925,358.7353,171.5407,188.5916,0,U,69808,999,193,.49695968E-4,.127E-5,0
QIANFAN-210,2026-153K,2026-07-17T21:56:55.947552,14.23252591,.00082082,88.9926,358.7349,174.3047,185.8240,0,U,69809,999,193,.18368831E-4,.56E-6,0
QIANFAN-211,2026-153L,2026-07-17T21:56:08.475936,14.23382187,.00078284,88.9925,358.7346,171.2281,188.9049,0,U,69810,999,193,.29938487E-4,.82E-6,0
QIANFAN-212,2026-153M,2026-07-17T13:21:48.245760,14.21837100,.0007528,88.9920,358.7744,169.0889,191.0467,0,U,69811,999,188,-.88345E+0,-.1812966E-1,0
QIANFAN-213,2026-153N,2026-07-17T11:40:56.277408,14.21585762,.0006786,88.9919,358.7827,174.7343,185.3920,0,U,69812,999,187,-.89107E+0,-.1819392E-1,0
QIANFAN-214,2026-153P,2026-07-17T20:07:40.994688,14.26715399,.00081141,88.9925,358.7421,175.5831,184.5436,0,U,69813,999,192,.33203706E-4,.95E-6,0
QIANFAN-215,2026-153Q,2026-07-17T21:48:38.090016,14.26718881,.000821,88.9924,358.7337,176.6897,183.4353,0,U,69814,999,193,.4888589E-4,.133E-5,0
QIANFAN-216,2026-153R,2026-07-17T21:48:37.410912,14.26720030,.00081833,88.9925,358.7339,176.5489,183.5762,0,U,69815,999,193,.55319108E-4,.148E-5,0
QIANFAN-217,2026-153S,2026-07-17T21:47:57.078528,14.26768057,.0007881,88.9924,358.7336,173.1970,186.9332,0,U,69816,999,193,.2648618E-5,.21E-6,0
QIANFAN-218,2026-153T,2026-07-17T21:47:23.016192,14.26811091,.00076543,88.9926,358.7341,170.4744,189.6597,0,U,69817,999,193,.3292569E-4,.94E-6,0
CZ-6A R/B,2026-153U,2026-07-17T22:28:51.020832,14.53449359,.0087012,89.0166,358.6538,77.8386,283.2553,0,U,69818,999,197,.30980364E-4,.155E-5,0
STARLINK-37520,2026-154A,2026-07-17T22:00:01.999584,15.80911917,.00012941,53.1582,279.3143,81.3582,297.8379,0,U,69819,999,310,-.42397909E-3,-.83724E-3,0
STARLINK-37553,2026-154B,2026-07-17T22:00:01.999584,15.80899688,.0000936,53.1582,279.3051,89.1061,294.3637,0,U,69820,999,310,-.31828444E-3,-.63136E-3,0
STARLINK-37561,2026-154C,2026-07-17T22:00:01.999584,15.80894762,.00010357,53.1584,279.2960,96.8188,290.9268,0,U,69821,999,310,-.28770478E-3,-.57164E-3,0
STARLINK-37521,2026-154D,2026-07-17T22:00:01.999584,15.80914949,.00010747,53.1583,279.2872,84.5279,307.4820,0,U,69822,999,310,-.47377653E-3,-.93383E-3,0
STARLINK-37628,2026-154E,2026-07-17T22:00:01.999584,15.80894498,.00010594,53.1586,279.2784,88.0993,308.1883,0,U,69823,999,310,-.26913666E-3,-.53542E-3,0
STARLINK-37695,2026-154F,2026-07-17T22:00:01.999584,15.80974246,.00005199,53.1590,279.1967,122.1319,313.6692,0,U,69824,999,310,-.91272565E-3,-.177998E-2,0
STARLINK-37690,2026-154G,2026-07-17T22:00:01.999584,15.80897765,.00011906,53.1587,279.2610,81.8439,322.9847,0,U,69825,999,310,-.27755324E-3,-.55193E-3,0
STARLINK-37710,2026-154H,2026-07-17T22:00:01.999584,15.80909853,.00008868,53.1588,279.2522,83.6525,325.4458,0,U,69826,999,310,-.41630023E-3,-.82222E-3,0
STARLINK-38031,2026-154J,2026-07-17T22:00:01.999584,15.80915731,.00009092,53.1588,279.2429,82.6656,330.7030,0,U,69827,999,310,-.46548811E-3,-.91779E-3,0
STARLINK-38001,2026-154K,2026-07-17T22:00:01.999584,15.80910389,.00011304,53.1590,279.2342,79.5493,338.0923,0,U,69828,999,310,-.399639E-3,-.78993E-3,0
STARLINK-37622,2026-154L,2026-07-17T22:00:01.999584,15.80895594,.00011881,53.1589,279.2253,79.7315,342.1859,0,U,69829,999,310,-.27394264E-3,-.54483E-3,0
STARLINK-37621,2026-154M,2026-07-17T22:00:01.999584,15.80908832,.00008745,53.1589,279.2165,76.7156,349.4671,0,U,69830,999,310,-.37658693E-3,-.74507E-3,0
STARLINK-37918,2026-154N,2026-07-17T22:00:01.999584,15.80908509,.00011083,53.1589,279.2076,94.9914,335.4660,0,U,69831,999,310,-.40803346E-3,-.80616E-3,0
STARLINK-37887,2026-154P,2026-07-17T22:00:01.999584,15.80911236,.00007623,53.1590,279.1987,72.9892,1.7404,0,U,69832,999,310,-.46651392E-3,-.91958E-3,0
STARLINK-37624,2026-154Q,2026-07-17T22:00:01.999584,15.80900527,.00010548,53.1589,279.1896,69.6444,9.3560,0,U,69833,999,310,-.31497568E-3,-.62495E-3,0
STARLINK-37769,2026-154R,2026-07-17T22:00:01.999584,15.80902194,.00011228,53.1589,279.1807,79.7910,3.4807,0,U,69834,999,310,-.35008983E-3,-.69336E-3,0
STARLINK-37247,2026-154S,2026-07-17T22:00:01.999584,15.80914725,.00011883,53.1589,279.1721,65.7204,21.8182,0,U,69835,999,320,-.4392369E-3,-.86693E-3,0
STARLINK-37569,2026-154T,2026-07-17T22:00:01.999584,15.80900012,.00010699,53.1590,279.1633,82.3706,9.4449,0,U,69836,999,310,-.31680626E-3,-.6285E-3,0
