QIANFAN-208             
1 69807U 26153H   26198.91313205  .00000150  00000+0  57386-4 0  9995
2 69807  88.9925 358.7345 0008533 175.0693 185.0586 14.25462597  1939
QIANFAN-209             
1 69808U 26153J   26198.91802070  .00000127  00000+0  49696-4 0  9998
2 69808  88.9925 358.7353 0007663 171.5407 188.5916 14.23086572  1934
QIANFAN-210             
1 69809U 26153K   26198.91453643  .00000056  00000+0  18369-4 0  9991
2 69809  88.9926 358.7349 0008208 174.3047 185.8240 14.23252591  1934
QIANFAN-211             
1 69810U 26153L   26198.91398699  .00000082  00000+0  29938-4 0  9995
2 69810  88.9925 358.7346 0007828 171.2281 188.9049 14.23382187  1931
QIANFAN-212             
1 69811U 26153M   26198.55680840 -.01812966  00000+0 -88345+0 0  9995
2 69811  88.9920 358.7744 0007528 169.0889 191.0467 14.21837100  1886
QIANFAN-213             
1 69812U 26153N   26198.48676247 -.01819392  00000+0 -89107+0 0  9991
2 69812  88.9919 358.7827 0006786 174.7343 185.3920 14.21585762  1873
QIANFAN-214             
1 69813U 26153P   26198.83866892  .00000095  00000+0  33204-4 0  9999
2 69813  88.9925 358.7421 0008114 175.5831 184.5436 14.26715399  1924
QIANFAN-215             
1 69814U 26153Q   26198.90877419  .00000133  00000+0  48886-4 0  9990
2 69814  88.9924 358.7337 0008210 176.6897 183.4353 14.26718881  1937
QIANFAN-216             
1 69815U 26153R   26198.90876633  .00000148  00000+0  55319-4 0  9993
2 69815  88.9925 358.7339 0008183 176.5489 183.5762 14.26720030  1930
QIANFAN-217             
1 69816U 26153S   26198.90829952  .00000021  00000+0  26486-5 0  9990
2 69816  88.9924 358.7336 0007881 173.1970 186.9332 14.26768057  1930
QIANFAN-218             
1 69817U 26153T   26198.90790528  .00000094  00000+0  32926-4 0  9992
2 69817  88.9926 358.7341 0007654 170.4744 189.6597 14.26811091  1936
CZ-6A R/B               
1 69818U 26153U   26198.93670163  .00000155  00000+0  30980-4 0  9994
2 69818  89.0166 358.6538 0087012  77.8386 283.2553 14.53449359  1971
STARLINK-37520          
1 69819U 26154A   26198.91668981 -.00083724  00000+0 -42398-3 0  9999
2 69819  53.1582 279.3143 0001294  81.3582 297.8379 15.80911917  3102
STARLINK-37553          
1 69820U 26154B   26198.91668981 -.00063136  00000+0 -31828-3 0  9992
2 69820  53.1582 279.3051 0000936  89.1061 294.3637 15.80899688  3101
STARLINK-37561          
1 69821U 26154C   26198.91668981 -.00057164  00000+0 -28770-3 0  9999
2 69821  53.1584 279.2960 0001035  96.8188 290.9268 15.80894762  3108
STARLINK-37521          
1 69822U 26154D   26198.91668981 -.00093383  00000+0 -47378-3 0  9998
2 69822  53.1583 279.2872 0001074  84.5279 307.4820 15.80914949  3106
STARLINK-37628          
1 69823U 26154E   26198.91668981 -.00053542  00000+0 -26914-3 0  9995
2 69823  53.1586 279.2784 0001059  88.0993 308.1883 15.80894498  3100
STARLINK-37695          
1 69824U 26154F   26198.91668981 -.00177998  00000+0 -91273-3 0  9998
2 69824  53.1590 279.1967 0000519 122.1319 313.6692 15.80974246  3109
STARLINK-37690          
1 69825U 26154G   26198.91668981 -.00055193  00000+0 -27755-3 0  9995
2 69825  53.1587 279.2610 0001190  81.8439 322.9847 15.80897765  3107
STARLINK-37710          
1 69826U 26154H   26198.91668981 -.00082222  00000+0 -41630-3 0  9997
2 69826  53.1588 279.2522 0000886  83.6525 325.4458 15.80909853  3106
STARLINK-38031          
1 69827U 26154J   26198.91668981 -.00091779  00000+0 -46549-3 0  9999
2 69827  53.1588 279.2429 0000909  82.6656 330.7030 15.80915731  3100
STARLINK-38001          
1 69828U 26154K   26198.91668981 -.00078993  00000+0 -39964-3 0  9996
2 69828  53.1590 279.2342 0001130  79.5493 338.0923 15.80910389  3105
STARLINK-37622          
1 69829U 26154L   26198.91668981 -.00054483  00000+0 -27394-3 0  9999
2 69829  53.1589 279.2253 0001188  79.7315 342.1859 15.80895594  3107
STARLINK-37621          
1 69830U 26154M   26198.91668981 -.00074507  00000+0 -37659-3 0  9995
2 69830  53.1589 279.2165 0000874  76.7156 349.4671 15.80908832  3104
STARLINK-37918          
1 69831U 26154N   26198.91668981 -.00080616  00000+0 -40803-3 0  9999
2 69831  53.1589 279.2076 0001108  94.9914 335.4660 15.80908509  3105
STARLINK-37887          
1 69832U 26154P   26198.91668981 -.00091958  00000+0 -46651-3 0  9998
2 69832  53.1590 279.1987 0000762  72.9892   1.7404 15.80911236  3104
STARLINK-37624          
1 69833U 26154Q   26198.91668981 -.00062495  00000+0 -31498-3 0  9996
2 69833  53.1589 279.1896 0001054  69.6444   9.3560 15.80900527  3101
STARLINK-37769          
1 69834U 26154R   26198.91668981 -.00069336  00000+0 -35009-3 0  9990
2 69834  53.1589 279.1807 0001122  79.7910   3.4807 15.80902194  3101
STARLINK-37247          
1 69835U 26154S   26198.91668981 -.00086693  00000+0 -43924-3 0  9991
2 69835  53.1589 279.1721 0001188  65.7204  21.8182 15.80914725  3204
STARLINK-37569          
1 69836U 26154T   26198.91668981 -.00062850  00000+0 -31681-3 0  9998
2 69836  53.1590 279.1633 0001069  82.3706   9.4449 15.80900012  3100
